start=new Date('2022-08-16T00:00:00.000Z').valueOf();
sats=[{"TLE_LINE1":"1 52125U 22029AP  22227.91667824 -.00051974  00000-0 -32685-2 0  9992","REV_AT_EPOCH":"130","EPHEMERIS_TYPE":"0","MEAN_ANOMALY":"170.7531","SITE":"AFETR","LAUNCH_DATE":"2022-03-19","CENTER_NAME":"EARTH","MEAN_MOTION_DDOT":"0.0000000000000","DECAY_DATE":null,"SEMIMAJOR_AXIS":"6917.794","OBJECT_TYPE":"PAYLOAD","BSTAR":"-0.00326850000000","OBJECT_ID":"2022-029AP","MEAN_ELEMENT_THEORY":"SGP4","GP_ID":"210300777","CLASSIFICATION_TYPE":"U","ARG_OF_PERICENTER":"62.8947","PERIOD":"95.436","RA_OF_ASC_NODE":"153.0042","TIME_SYSTEM":"UTC","ELEMENT_SET_NO":"999","REF_FRAME":"TEME","FILE":"3537378","INCLINATION":"53.2152","RCS_SIZE":"LARGE","NORAD_CAT_ID":"52125","TLE_LINE2":"2 52125  53.2152 153.0042 0002319  62.8947 170.7531 15.08868268  1301","APOAPSIS":"541.263","COUNTRY_CODE":"US","MEAN_MOTION_DOT":"-0.00051974","EPOCH":"2022-08-15T22:00:00.999936","MEAN_MOTION":"15.08868268","ECCENTRICITY":"0.00023190","OBJECT_NAME":"STARLINK-3727","PERIAPSIS":"538.055"},{"RCS_SIZE":"LARGE","NORAD_CAT_ID":"52126","INCLINATION":"53.2152","REF_FRAME":"TEME","FILE":"3537378","MEAN_MOTION":"15.08850628","EPOCH":"2022-08-15T22:00:00.999936","PERIAPSIS":"538.019","ECCENTRICITY":"0.00024490","OBJECT_NAME":"STARLINK-3732","TLE_LINE2":"2 52126  53.2152 153.0040 0002449  62.5659 131.0952 15.08850628  1309","APOAPSIS":"541.407","COUNTRY_CODE":"US","MEAN_MOTION_DOT":"-0.00016950","MEAN_ANOMALY":"131.0952","MEAN_MOTION_DDOT":"0.0000000000000","DECAY_DATE":null,"SITE":"AFETR","LAUNCH_DATE":"2022-03-19","CENTER_NAME":"EARTH","TLE_LINE1":"1 52126U 22029AQ  22227.91667824 -.00016950  00000-0 -10490-2 0  9998","EPHEMERIS_TYPE":"0","REV_AT_EPOCH":"130","RA_OF_ASC_NODE":"153.0040","ARG_OF_PERICENTER":"62.5659","PERIOD":"95.437","ELEMENT_SET_NO":"999","TIME_SYSTEM":"UTC","SEMIMAJOR_AXIS":"6917.848","OBJECT_TYPE":"PAYLOAD","BSTAR":"-0.00104900000000","CLASSIFICATION_TYPE":"U","OBJECT_ID":"2022-029AQ","MEAN_ELEMENT_THEORY":"SGP4","GP_ID":"210300033"},{"OBJECT_TYPE":"PAYLOAD","SEMIMAJOR_AXIS":"6917.879","BSTAR":"-0.00189600000000","CLASSIFICATION_TYPE":"U","GP_ID":"210300283","MEAN_ELEMENT_THEORY":"SGP4","OBJECT_ID":"2022-029AR","RA_OF_ASC_NODE":"153.0018","PERIOD":"95.438","ARG_OF_PERICENTER":"55.0437","ELEMENT_SET_NO":"999","TIME_SYSTEM":"UTC","TLE_LINE1":"1 52127U 22029AR  22227.91667824 -.00030338  00000-0 -18960-2 0  9995","EPHEMERIS_TYPE":"0","REV_AT_EPOCH":"130","MEAN_ANOMALY":"198.6295","DECAY_DATE":null,"MEAN_MOTION_DDOT":"0.0000000000000","CENTER_NAME":"EARTH","LAUNCH_DATE":"2022-03-19","SITE":"AFETR","APOAPSIS":"541.346","TLE_LINE2":"2 52127  53.2145 153.0018 0002316  55.0437 198.6295 15.08840612  1302","MEAN_MOTION_DOT":"-0.00030338","COUNTRY_CODE":"US","EPOCH":"2022-08-15T22:00:00.999936","MEAN_MOTION":"15.08840612","PERIAPSIS":"538.141","OBJECT_NAME":"STARLINK-3715","ECCENTRICITY":"0.00023160","REF_FRAME":"TEME","FILE":"3537378","NORAD_CAT_ID":"52127","RCS_SIZE":"LARGE","INCLINATION":"53.2145"},{"FILE":"3537378","REF_FRAME":"TEME","NORAD_CAT_ID":"52129","RCS_SIZE":"LARGE","INCLINATION":"53.2149","MEAN_MOTION_DOT":"-0.00048083","COUNTRY_CODE":"US","APOAPSIS":"541.310","TLE_LINE2":"2 52129  53.2149 152.9983 0002313  58.7226 234.9458 15.08851555  1303","PERIAPSIS":"538.110","OBJECT_NAME":"STARLINK-3661","ECCENTRICITY":"0.00023130","MEAN_MOTION":"15.08851555","EPOCH":"2022-08-15T22:00:00.999936","EPHEMERIS_TYPE":"0","REV_AT_EPOCH":"130","TLE_LINE1":"1 52129U 22029AT  22227.91667824 -.00048083  00000-0 -30222-2 0  9998","DECAY_DATE":null,"MEAN_MOTION_DDOT":"0.0000000000000","CENTER_NAME":"EARTH","LAUNCH_DATE":"2022-03-19","SITE":"AFETR","MEAN_ANOMALY":"234.9458","CLASSIFICATION_TYPE":"U","GP_ID":"210300535","MEAN_ELEMENT_THEORY":"SGP4","OBJECT_ID":"2022-029AT","BSTAR":"-0.00302220000000","OBJECT_TYPE":"PAYLOAD","SEMIMAJOR_AXIS":"6917.845","ELEMENT_SET_NO":"999","TIME_SYSTEM":"UTC","RA_OF_ASC_NODE":"152.9983","PERIOD":"95.437","ARG_OF_PERICENTER":"58.7226"},{"REF_FRAME":"TEME","FILE":"3537378","INCLINATION":"53.2169","RCS_SIZE":"LARGE","NORAD_CAT_ID":"52131","TLE_LINE2":"2 52131  53.2169 152.9936 0002123  61.8553 251.8058 15.08835890  1301","APOAPSIS":"541.227","COUNTRY_CODE":"US","MEAN_MOTION_DOT":"-0.00016935","EPOCH":"2022-08-15T22:00:00.999936","MEAN_MOTION":"15.08835890","ECCENTRICITY":"0.00021230","OBJECT_NAME":"STARLINK-3711","PERIAPSIS":"538.289","TLE_LINE1":"1 52131U 22029AV  22227.91667824 -.00016935  00000-0 -10485-2 0  9991","REV_AT_EPOCH":"130","EPHEMERIS_TYPE":"0","MEAN_ANOMALY":"251.8058","SITE":"AFETR","CENTER_NAME":"EARTH","LAUNCH_DATE":"2022-03-19","MEAN_MOTION_DDOT":"0.0000000000000","DECAY_DATE":null,"SEMIMAJOR_AXIS":"6917.893","OBJECT_TYPE":"PAYLOAD","BSTAR":"-0.00104850000000","OBJECT_ID":"2022-029AV","MEAN_ELEMENT_THEORY":"SGP4","GP_ID":"210301277","CLASSIFICATION_TYPE":"U","ARG_OF_PERICENTER":"61.8553","PERIOD":"95.438","RA_OF_ASC_NODE":"152.9936","TIME_SYSTEM":"UTC","ELEMENT_SET_NO":"999"},{"RCS_SIZE":"LARGE","NORAD_CAT_ID":"52132","INCLINATION":"53.2162","REF_FRAME":"TEME","FILE":"3537378","EPOCH":"2022-08-15T22:00:00.999936","MEAN_MOTION":"15.08862925","PERIAPSIS":"537.944","ECCENTRICITY":"0.00025030","OBJECT_NAME":"STARLINK-3718","TLE_LINE2":"2 52132  53.2162 153.0023 0002503  62.9712 210.6450 15.08862925  1303","APOAPSIS":"541.407","COUNTRY_CODE":"US","MEAN_MOTION_DOT":"-0.00048122","MEAN_ANOMALY":"210.6450","MEAN_MOTION_DDOT":"0.0000000000000","DECAY_DATE":null,"SITE":"AFETR","LAUNCH_DATE":"2022-03-19","CENTER_NAME":"EARTH","TLE_LINE1":"1 52132U 22029AW  22227.91667824 -.00048122  00000-0 -30237-2 0  9992","EPHEMERIS_TYPE":"0","REV_AT_EPOCH":"130","RA_OF_ASC_NODE":"153.0023","ARG_OF_PERICENTER":"62.9712","PERIOD":"95.436","ELEMENT_SET_NO":"999","TIME_SYSTEM":"UTC","OBJECT_TYPE":"PAYLOAD","SEMIMAJOR_AXIS":"6917.810","BSTAR":"-0.00302370000000","CLASSIFICATION_TYPE":"U","OBJECT_ID":"2022-029AW","GP_ID":"210299534","MEAN_ELEMENT_THEORY":"SGP4"},{"REF_FRAME":"TEME","FILE":"3537378","INCLINATION":"53.2165","NORAD_CAT_ID":"52133","RCS_SIZE":"LARGE","APOAPSIS":"540.977","TLE_LINE2":"2 52133  53.2165 152.9931 0001823  66.7962 286.8343 15.08849745  1307","MEAN_MOTION_DOT":"-0.00020337","COUNTRY_CODE":"US","EPOCH":"2022-08-15T22:00:00.999936","MEAN_MOTION":"15.08849745","OBJECT_NAME":"STARLINK-3707","ECCENTRICITY":"0.00018230","PERIAPSIS":"538.454","TLE_LINE1":"1 52133U 22029AX  22227.91667824 -.00020337  00000-0 -12629-2 0  9996","REV_AT_EPOCH":"130","EPHEMERIS_TYPE":"0","MEAN_ANOMALY":"286.8343","CENTER_NAME":"EARTH","LAUNCH_DATE":"2022-03-19","SITE":"AFETR","DECAY_DATE":null,"MEAN_MOTION_DDOT":"0.0000000000000","OBJECT_TYPE":"PAYLOAD","SEMIMAJOR_AXIS":"6917.851","BSTAR":"-0.00126290000000","MEAN_ELEMENT_THEORY":"SGP4","GP_ID":"210299784","OBJECT_ID":"2022-029AX","CLASSIFICATION_TYPE":"U","PERIOD":"95.437","ARG_OF_PERICENTER":"66.7962","RA_OF_ASC_NODE":"152.9931","TIME_SYSTEM":"UTC","ELEMENT_SET_NO":"999"},{"TLE_LINE2":"2 52134  53.2162 152.9933 0002049  60.9205 272.6328 15.08862361  1309","APOAPSIS":"541.095","COUNTRY_CODE":"US","MEAN_MOTION_DOT":"-0.00018402","EPOCH":"2022-08-15T22:00:00.999936","MEAN_MOTION":"15.08862361","PERIAPSIS":"538.260","ECCENTRICITY":"0.00020490","OBJECT_NAME":"STARLINK-3721","REF_FRAME":"TEME","FILE":"3537378","RCS_SIZE":"LARGE","NORAD_CAT_ID":"52134","INCLINATION":"53.2162","SEMIMAJOR_AXIS":"6917.812","OBJECT_TYPE":"PAYLOAD","BSTAR":"-0.00114030000000","CLASSIFICATION_TYPE":"U","OBJECT_ID":"2022-029AY","GP_ID":"210301035","MEAN_ELEMENT_THEORY":"SGP4","RA_OF_ASC_NODE":"152.9933","ARG_OF_PERICENTER":"60.9205","PERIOD":"95.436","ELEMENT_SET_NO":"999","TIME_SYSTEM":"UTC","TLE_LINE1":"1 52134U 22029AY  22227.91667824 -.00018402  00000-0 -11403-2 0  9996","EPHEMERIS_TYPE":"0","REV_AT_EPOCH":"130","MEAN_ANOMALY":"272.6328","MEAN_MOTION_DDOT":"0.0000000000000","DECAY_DATE":null,"SITE":"AFETR","LAUNCH_DATE":"2022-03-19","CENTER_NAME":"EARTH"},{"REV_AT_EPOCH":"130","EPHEMERIS_TYPE":"0","TLE_LINE1":"1 52135U 22029AZ  22227.91667824 -.00047707  00000-0 -29983-2 0  9999","CENTER_NAME":"EARTH","LAUNCH_DATE":"2022-03-19","SITE":"AFETR","DECAY_DATE":null,"MEAN_MOTION_DDOT":"0.0000000000000","MEAN_ANOMALY":"351.7715","GP_ID":"210300778","MEAN_ELEMENT_THEORY":"SGP4","OBJECT_ID":"2022-029AZ","CLASSIFICATION_TYPE":"U","OBJECT_TYPE":"PAYLOAD","BSTAR":"-0.00299830000000","SEMIMAJOR_AXIS":"6917.843","TIME_SYSTEM":"UTC","ELEMENT_SET_NO":"999","PERIOD":"95.437","ARG_OF_PERICENTER":"61.8864","RA_OF_ASC_NODE":"152.9927","FILE":"3537378","REF_FRAME":"TEME","INCLINATION":"53.2174","NORAD_CAT_ID":"52135","RCS_SIZE":"LARGE","MEAN_MOTION_DOT":"-0.00047707","COUNTRY_CODE":"US","APOAPSIS":"540.915","TLE_LINE2":"2 52135  53.2174 152.9927 0001745  61.8864 351.7715 15.08852222  1303","OBJECT_NAME":"STARLINK-3729","ECCENTRICITY":"0.00017450","PERIAPSIS":"538.501","MEAN_MOTION":"15.08852222","EPOCH":"2022-08-15T22:00:00.999936"},{"PERIAPSIS":"538.759","OBJECT_NAME":"STARLINK-3720","ECCENTRICITY":"0.00014200","MEAN_MOTION":"15.08841301","EPOCH":"2022-08-15T22:00:00.999936","MEAN_MOTION_DOT":"-0.00021089","COUNTRY_CODE":"US","APOAPSIS":"540.724","TLE_LINE2":"2 52136  53.2166 152.9928 0001420  59.8456 313.7814 15.08841301  1304","NORAD_CAT_ID":"52136","RCS_SIZE":"LARGE","INCLINATION":"53.2166","FILE":"3537378","REF_FRAME":"TEME","ELEMENT_SET_NO":"999","TIME_SYSTEM":"UTC","RA_OF_ASC_NODE":"152.9928","PERIOD":"95.437","ARG_OF_PERICENTER":"59.8456","CLASSIFICATION_TYPE":"U","MEAN_ELEMENT_THEORY":"SGP4","GP_ID":"210300034","OBJECT_ID":"2022-029BA","SEMIMAJOR_AXIS":"6917.876","OBJECT_TYPE":"PAYLOAD","BSTAR":"-0.00131080000000","DECAY_DATE":null,"MEAN_MOTION_DDOT":"0.0000000000000","LAUNCH_DATE":"2022-03-19","CENTER_NAME":"EARTH","SITE":"AFETR","MEAN_ANOMALY":"313.7814","EPHEMERIS_TYPE":"0","REV_AT_EPOCH":"130","TLE_LINE1":"1 52136U 22029BA  22227.91667824 -.00021089  00000-0 -13108-2 0  9997"}];
